{
"type": "FeatureCollection",
"name": "ne_10m_land_aoi",
"crs": { "type": "name", "properties": { "name": "urn:ogc:def:crs:OGC:1.3:CRS84" } },
"features": [
{ "type": "Feature", "properties": { }, "geometry": { "type": "Polygon", "coordinates": [ [ [ 67.219467845505321, 24.5 ], [ 73.5, 24.5 ], [ 73.5, 19.0 ], [ 73.049073473452367, 19.0 ], [ 73.056813998000052, 19.015326239000046 ], [ 73.039805535000085, 19.017523505000042 ], [ 73.011892123000052, 19.009426174000055 ], [ 72.99133881218728, 19.0 ], [ 72.98773482625873, 19.0 ], [ 72.983571811000047, 19.010443427000041 ], [ 72.987803582000083, 19.036932684000078 ], [ 72.980967644000032, 19.046372789000088 ], [ 72.99187259200005, 19.067206122000073 ], [ 72.98568769600007, 19.074286200000074 ], [ 72.973806186000047, 19.078558661000045 ], [ 72.967295769000032, 19.091009833000044 ], [ 72.974782748000052, 19.163072007000039 ], [ 72.967295769000032, 19.163072007000039 ], [ 72.950043165000068, 19.127915757000039 ], [ 72.935557488000029, 19.115057684000078 ], [ 72.933929884000065, 19.080308335000041 ], [ 72.926931186000047, 19.066839911000045 ], [ 72.943369988000029, 19.055121161000045 ], [ 72.934255405000044, 19.034084377000056 ], [ 72.899777746119739, 19.0 ], [ 72.891449415000068, 19.0 ], [ 72.885264519000032, 19.025864976000037 ], [ 72.869313998000052, 19.011419989000046 ], [ 72.860744224257331, 19.0 ], [ 72.802494631167278, 19.0 ], [ 72.804942254000082, 19.011053778000075 ], [ 72.802744988000029, 19.040187893000052 ], [ 72.817067905000044, 19.032700914000088 ], [ 72.821787957000083, 19.041978257000039 ], [ 72.824229363000029, 19.053534247000073 ], [ 72.821299675000034, 19.063177802000041 ], [ 72.809580925000034, 19.066839911000045 ], [ 72.82195071700005, 19.09711334800005 ], [ 72.823090040000068, 19.108465887000079 ], [ 72.821055535000085, 19.119208075000074 ], [ 72.81177819100003, 19.13735586100006 ], [ 72.809580925000034, 19.146307684000078 ], [ 72.81218509200005, 19.153713283000059 ], [ 72.822438998000052, 19.163763739000046 ], [ 72.823090040000068, 19.169256903000075 ], [ 72.81804446700005, 19.175360419000071 ], [ 72.811208530000044, 19.175523179000038 ], [ 72.805186394000032, 19.171820380000042 ], [ 72.799571160000085, 19.15688711100006 ], [ 72.792165561000047, 19.150458075000074 ], [ 72.784922722000033, 19.150376695000091 ], [ 72.781586134000065, 19.159654039000088 ], [ 72.783376498000052, 19.168646552000041 ], [ 72.802500847000033, 19.211615302000041 ], [ 72.819834832000083, 19.240627346000053 ], [ 72.830088738000029, 19.252427476000037 ], [ 72.815114780000044, 19.253648179000038 ], [ 72.80209394600007, 19.237860419000071 ], [ 72.789398634000065, 19.217352606000077 ], [ 72.775401238000029, 19.204657294000071 ], [ 72.772227410000085, 19.265122789000088 ], [ 72.775645379000082, 19.299017645000049 ], [ 72.785411004000082, 19.31391022300005 ], [ 72.839366082000083, 19.31907786700009 ], [ 72.867035352000073, 19.316799221000053 ], [ 72.885508660000085, 19.296047268000052 ], [ 72.900563998000052, 19.290757554000038 ], [ 72.930349155000044, 19.28656647300005 ], [ 72.94654381600003, 19.289862372000073 ], [ 72.959727410000085, 19.294826565000051 ], [ 72.972666863000029, 19.29368724200009 ], [ 72.988291863000029, 19.279120184000078 ], [ 73.010508660000085, 19.224310614000046 ], [ 73.02662194100003, 19.205511786000045 ], [ 73.049652540000068, 19.217718817000048 ], [ 73.030039910000085, 19.227728583000044 ], [ 73.028005405000044, 19.244086005000042 ], [ 73.029144727000073, 19.259344794000071 ], [ 73.012461785000085, 19.272447007000039 ], [ 73.001800977000073, 19.28656647300005 ], [ 72.987803582000083, 19.300685940000051 ], [ 72.970957879000082, 19.307033596000053 ], [ 72.916758660000085, 19.30337148600006 ], [ 72.898936394000032, 19.307033596000053 ], [ 72.883555535000085, 19.316392320000091 ], [ 72.855316602000073, 19.339504299000055 ], [ 72.836924675000034, 19.348049221000053 ], [ 72.818532748000052, 19.330267645000049 ], [ 72.80209394600007, 19.331935940000051 ], [ 72.787608269000032, 19.345200914000088 ], [ 72.763438347000033, 19.380194403000075 ], [ 72.759776238000029, 19.38898346600007 ], [ 72.748220248000052, 19.444240627000056 ], [ 72.746836785000085, 19.467962958000044 ], [ 72.754405144000032, 19.481756903000075 ], [ 72.76921634200005, 19.490464585000041 ], [ 72.879161004000082, 19.532375393000052 ], [ 72.85670006600003, 19.54132721600007 ], [ 72.835948113000029, 19.536688544000071 ], [ 72.815928582000083, 19.528509833000044 ], [ 72.795909050000034, 19.52680084800005 ], [ 72.787852410000085, 19.530259507000039 ], [ 72.781260613000029, 19.53656647300005 ], [ 72.77702884200005, 19.54555898600006 ], [ 72.775401238000029, 19.557196356000077 ], [ 72.770681186000047, 19.566148179000038 ], [ 72.760020379000082, 19.573065497000073 ], [ 72.741953972000033, 19.58079661700009 ], [ 72.734548373000052, 19.58079661700009 ], [ 72.740733269000032, 19.560736395000049 ], [ 72.739756707000083, 19.552679755000042 ], [ 72.734548373000052, 19.546616929000038 ], [ 72.74927819100003, 19.534247137000079 ], [ 72.754893425000034, 19.527044989000046 ], [ 72.755625847000033, 19.519354559000078 ], [ 72.749196811000047, 19.512600002000056 ], [ 72.74154707100007, 19.516017971000053 ], [ 72.722504102000073, 19.536281643000052 ], [ 72.710785352000073, 19.587591864000046 ], [ 72.71802819100003, 19.606675523000035 ], [ 72.709646030000044, 19.649969794000071 ], [ 72.686696811000047, 19.724798895000049 ], [ 72.694102410000085, 19.720200914000088 ], [ 72.699961785000085, 19.714178778000075 ], [ 72.707774285000085, 19.697455145000049 ], [ 72.726410352000073, 19.70579661700009 ], [ 72.726410352000073, 19.715236721000053 ], [ 72.718597852000073, 19.727932033000059 ], [ 72.714040561000047, 19.745835679000038 ], [ 72.717295769000032, 19.751532294000071 ], [ 72.731293165000068, 19.754584052000041 ], [ 72.734548373000052, 19.762640692000048 ], [ 72.732758009000065, 19.779730536000045 ], [ 72.728282097000033, 19.793646552000041 ], [ 72.690114780000044, 19.748968817000048 ], [ 72.677907748000052, 19.746568101000037 ], [ 72.675791863000029, 19.764146226000037 ], [ 72.679860873000052, 19.800482489000046 ], [ 72.672862175000034, 19.81281159100007 ], [ 72.65007571700005, 19.841986395000049 ], [ 72.649180535000085, 19.851996161000045 ], [ 72.659190300000034, 19.866441148000035 ], [ 72.664235873000052, 19.88157786700009 ], [ 72.666188998000052, 19.916571356000077 ], [ 72.662771030000044, 19.941799221000053 ], [ 72.665212436000047, 19.952948309000078 ], [ 72.676442905000044, 19.957505601000037 ], [ 72.684336785000085, 19.964016018000052 ], [ 72.694509311000047, 19.979315497000073 ], [ 72.703379754000082, 19.997626044000071 ], [ 72.707774285000085, 20.012762762000079 ], [ 72.707774285000085, 20.071112372000073 ], [ 72.71029707100007, 20.082912502000056 ], [ 72.728282097000033, 20.129461981000077 ], [ 72.734548373000052, 20.173529364000046 ], [ 72.73764082100007, 20.184271552000041 ], [ 72.752289259000065, 20.20376211100006 ], [ 72.755625847000033, 20.21515534100007 ], [ 72.75359134200005, 20.21820709800005 ], [ 72.744395379000082, 20.21938711100006 ], [ 72.741953972000033, 20.225043036000045 ], [ 72.741953972000033, 20.24555084800005 ], [ 72.748220248000052, 20.280340887000079 ], [ 72.777517123000052, 20.330064195000091 ], [ 72.781586134000065, 20.35228099200009 ], [ 72.78679446700005, 20.352240302000041 ], [ 72.79818769600007, 20.359320380000042 ], [ 72.817067905000044, 20.375921942000048 ], [ 72.820811394000032, 20.386135158000059 ], [ 72.823090040000068, 20.416815497000073 ], [ 72.82943769600007, 20.437933661000045 ], [ 72.840017123000052, 20.458726304000038 ], [ 72.879161004000082, 20.51243724200009 ], [ 72.886485222000033, 20.53156159100007 ], [ 72.890391472000033, 20.552679755000042 ], [ 72.891449415000068, 20.575140692000048 ], [ 72.885264519000032, 20.619208075000074 ], [ 72.888438347000033, 20.628485419000071 ], [ 72.902598504000082, 20.641913153000075 ], [ 72.905772332000083, 20.653306382000039 ], [ 72.90943444100003, 20.69867584800005 ], [ 72.907969597000033, 20.718329169000071 ], [ 72.898936394000032, 20.732163804000038 ], [ 72.940277540000068, 20.759426174000055 ], [ 72.946787957000083, 20.759466864000046 ], [ 72.94499759200005, 20.770005601000037 ], [ 72.926442905000044, 20.780991929000038 ], [ 72.919444207000083, 20.78742096600007 ], [ 72.919118686000047, 20.795599677000041 ], [ 72.924978061000047, 20.810614325000074 ], [ 72.919444207000083, 20.821519273000035 ], [ 72.900238477000073, 20.79913971600007 ], [ 72.885752800000034, 20.807114976000037 ], [ 72.88013756600003, 20.829901434000078 ], [ 72.888438347000033, 20.851955471000053 ], [ 72.900401238000029, 20.868109442000048 ], [ 72.89380944100003, 20.870062567000048 ], [ 72.881195509000065, 20.865668036000045 ], [ 72.836924675000034, 20.835842190000051 ], [ 72.845876498000052, 20.851792710000041 ], [ 72.854258660000085, 20.887152411000045 ], [ 72.86491946700005, 20.897284247000073 ], [ 72.836680535000085, 20.929917710000041 ], [ 72.856455925000034, 20.94798411700009 ], [ 72.886485222000033, 20.962103583000044 ], [ 72.888438347000033, 20.982611395000049 ], [ 72.875987175000034, 20.981350002000056 ], [ 72.853770379000082, 20.97492096600007 ], [ 72.832692905000044, 20.972357489000046 ], [ 72.823090040000068, 20.982611395000049 ], [ 72.821299675000034, 20.991603908000059 ], [ 72.81609134200005, 20.999009507000039 ], [ 72.808360222000033, 21.003973700000074 ], [ 72.787608269000032, 21.006903387000079 ], [ 72.781993035000085, 21.010158596000053 ], [ 72.771983269000032, 21.023871161000045 ], [ 72.76685631600003, 21.038560289000088 ], [ 72.783946160000085, 21.040432033000059 ], [ 72.823090040000068, 21.03384023600006 ], [ 72.84498131600003, 21.038316148000035 ], [ 72.849864129000082, 21.048000393000052 ], [ 72.815928582000083, 21.121486721000053 ], [ 72.809580925000034, 21.130031643000052 ], [ 72.799571160000085, 21.128810940000051 ], [ 72.755625847000033, 21.109564520000049 ], [ 72.741953972000033, 21.123236395000049 ], [ 72.73764082100007, 21.117377020000049 ], [ 72.73560631600003, 21.110744533000059 ], [ 72.734548373000052, 21.092474677000041 ], [ 72.73015384200005, 21.087836005000042 ], [ 72.700368686000047, 21.074774481000077 ], [ 72.705821160000085, 21.106350002000056 ], [ 72.720550977000073, 21.129706122000073 ], [ 72.728688998000052, 21.148098049000055 ], [ 72.714040561000047, 21.164129950000074 ], [ 72.706553582000083, 21.157700914000088 ], [ 72.686696811000047, 21.158148505000042 ], [ 72.676442905000044, 21.153631903000075 ], [ 72.672699415000068, 21.145738023000035 ], [ 72.673024936000047, 21.112616278000075 ], [ 72.67123457100007, 21.099798895000049 ], [ 72.666351759000065, 21.097398179000038 ], [ 72.658702019000032, 21.097601630000042 ], [ 72.637868686000047, 21.08539459800005 ], [ 72.629649285000085, 21.087958075000074 ], [ 72.615000847000033, 21.105861721000053 ], [ 72.615489129000082, 21.119818427000041 ], [ 72.630381707000083, 21.135972398000035 ], [ 72.693532748000052, 21.17845286700009 ], [ 72.711761915000068, 21.194037177000041 ], [ 72.721039259000065, 21.198797919000071 ], [ 72.734548373000052, 21.198919989000046 ], [ 72.723643425000034, 21.209133205000057 ], [ 72.687673373000052, 21.220445054000038 ], [ 72.67318769600007, 21.239081122000073 ], [ 72.659353061000047, 21.244696356000077 ], [ 72.646983269000032, 21.253607489000046 ], [ 72.64576256600003, 21.273382880000042 ], [ 72.625173373000052, 21.259344794000071 ], [ 72.61841881600003, 21.252915757000039 ], [ 72.606130405000044, 21.266587632000039 ], [ 72.602061394000032, 21.27765534100007 ], [ 72.597911004000082, 21.307562567000048 ], [ 72.588633660000085, 21.331976630000042 ], [ 72.586761915000068, 21.341213283000059 ], [ 72.590505405000044, 21.348537502000056 ], [ 72.60320071700005, 21.352728583000044 ], [ 72.638519727000073, 21.357163804000038 ], [ 72.64576256600003, 21.362779039000088 ], [ 72.638682488000029, 21.371242580000057 ], [ 72.623383009000065, 21.370266018000052 ], [ 72.594086134000065, 21.362779039000088 ], [ 72.578868035000085, 21.367010809000078 ], [ 72.56763756600003, 21.37641022300005 ], [ 72.564626498000052, 21.385809637000079 ], [ 72.573741082000083, 21.39008209800005 ], [ 72.635101759000065, 21.407456773000035 ], [ 72.672862175000034, 21.428127346000053 ], [ 72.728282097000033, 21.465806382000039 ], [ 72.747080925000034, 21.452866929000038 ], [ 72.752614780000044, 21.463568427000041 ], [ 72.748545769000032, 21.479641018000052 ], [ 72.738291863000029, 21.482855536000045 ], [ 72.68327884200005, 21.465806382000039 ], [ 72.665049675000034, 21.457220770000049 ], [ 72.612478061000047, 21.421861070000091 ], [ 72.58366946700005, 21.41742584800005 ], [ 72.589854363000029, 21.432766018000052 ], [ 72.619639519000032, 21.487372137000079 ], [ 72.635101759000065, 21.499335028000075 ], [ 72.651052280000044, 21.507025458000044 ], [ 72.690114780000044, 21.540676174000055 ], [ 72.703949415000068, 21.548407294000071 ], [ 72.726817254000082, 21.553168036000045 ], [ 72.751149936000047, 21.565130927000041 ], [ 72.773203972000033, 21.580511786000045 ], [ 72.789073113000029, 21.595526434000078 ], [ 72.810394727000073, 21.63507721600007 ], [ 72.823090040000068, 21.643947658000059 ], [ 72.833994988000029, 21.644476630000042 ], [ 72.85873457100007, 21.637600002000056 ], [ 72.871592644000032, 21.636542059000078 ], [ 72.889659050000034, 21.640529690000051 ], [ 72.935557488000029, 21.658351955000057 ], [ 72.965342644000032, 21.678778387000079 ], [ 73.022471550000034, 21.698553778000075 ], [ 73.084971550000034, 21.729681708000044 ], [ 73.108164910000085, 21.733343817000048 ], [ 73.116953972000033, 21.737250067000048 ], [ 73.126963738000029, 21.746771552000041 ], [ 73.132009311000047, 21.757798570000091 ], [ 73.126149936000047, 21.766831773000035 ], [ 73.11882571700005, 21.764715887000079 ], [ 73.083994988000029, 21.74640534100007 ], [ 73.046641472000033, 21.733343817000048 ], [ 73.022471550000034, 21.716009833000044 ], [ 72.99146569100003, 21.70844147300005 ], [ 72.950205925000034, 21.689154364000046 ], [ 72.926931186000047, 21.684963283000059 ], [ 72.882823113000029, 21.693019924000055 ], [ 72.858164910000085, 21.694973049000055 ], [ 72.840342644000032, 21.688381252000056 ], [ 72.819183790000068, 21.675034898000035 ], [ 72.79810631600003, 21.673529364000046 ], [ 72.755625847000033, 21.684963283000059 ], [ 72.733246290000068, 21.687486070000091 ], [ 72.676442905000044, 21.678127346000053 ], [ 72.653005405000044, 21.680568752000056 ], [ 72.634938998000052, 21.684637762000079 ], [ 72.616058790000068, 21.685451565000051 ], [ 72.570485873000052, 21.670477606000077 ], [ 72.550303582000083, 21.666693427000041 ], [ 72.534678582000083, 21.672919012000079 ], [ 72.528493686000047, 21.695135809000078 ], [ 72.532074415000068, 21.713853257000039 ], [ 72.55014082100007, 21.751939195000091 ], [ 72.55632571700005, 21.774318752000056 ], [ 72.562754754000082, 21.839422919000071 ], [ 72.566905144000032, 21.849351304000038 ], [ 72.585459832000083, 21.858872789000088 ], [ 72.598806186000047, 21.881008205000057 ], [ 72.61841881600003, 21.925116278000075 ], [ 72.63404381600003, 21.937486070000091 ], [ 72.652110222000033, 21.941066799000055 ], [ 72.690114780000044, 21.938788153000075 ], [ 72.702321811000047, 21.94757721600007 ], [ 72.706797722000033, 21.966131903000075 ], [ 72.714040561000047, 21.982977606000077 ], [ 72.734548373000052, 21.986558335000041 ], [ 72.734548373000052, 21.994045315000051 ], [ 72.719899936000047, 21.996323960000041 ], [ 72.707774285000085, 21.994045315000051 ], [ 72.700938347000033, 21.98891836100006 ], [ 72.693532748000052, 21.972316799000055 ], [ 72.623057488000029, 21.966620184000078 ], [ 72.611582879000082, 21.955511786000045 ], [ 72.602712436000047, 21.943589585000041 ], [ 72.581797722000033, 21.928168036000045 ], [ 72.558604363000029, 21.915269273000035 ], [ 72.542735222000033, 21.910834052000041 ], [ 72.533376498000052, 21.920314846000053 ], [ 72.50709069100003, 21.962307033000059 ], [ 72.501719597000033, 21.97601959800005 ], [ 72.504567905000044, 21.994208075000074 ], [ 72.517751498000052, 22.032131252000056 ], [ 72.522227410000085, 22.054266669000071 ], [ 72.519541863000029, 22.088446356000077 ], [ 72.530039910000085, 22.107489325000074 ], [ 72.533376498000052, 22.118557033000059 ], [ 72.535899285000085, 22.140529690000051 ], [ 72.542165561000047, 22.156724351000037 ], [ 72.557383660000085, 22.176662502000056 ], [ 72.57545006600003, 22.194525458000044 ], [ 72.590505405000044, 22.205023505000042 ], [ 72.614105665000068, 22.211737372000073 ], [ 72.63445071700005, 22.21039459800005 ], [ 72.652354363000029, 22.202337958000044 ], [ 72.66960696700005, 22.18891022300005 ], [ 72.681895379000082, 22.181586005000042 ], [ 72.691661004000082, 22.18195221600007 ], [ 72.699717644000032, 22.184963283000059 ], [ 72.707774285000085, 22.185777085000041 ], [ 72.729258660000085, 22.177435614000046 ], [ 72.748220248000052, 22.164048570000091 ], [ 72.790212436000047, 22.217230536000045 ], [ 72.812266472000033, 22.234116929000038 ], [ 72.847422722000033, 22.240423895000049 ], [ 72.865082227000073, 22.233465887000079 ], [ 72.881114129000082, 22.220404364000046 ], [ 72.897227410000085, 22.213039455000057 ], [ 72.916026238000029, 22.223089911000045 ], [ 72.922129754000082, 22.236517645000049 ], [ 72.922699415000068, 22.254584052000041 ], [ 72.917491082000083, 22.271429755000042 ], [ 72.905772332000083, 22.281398830000057 ], [ 72.89966881600003, 22.269191799000055 ], [ 72.88607832100007, 22.262396552000041 ], [ 72.869476759000065, 22.262396552000041 ], [ 72.854258660000085, 22.270819403000075 ], [ 72.838633660000085, 22.276556708000044 ], [ 72.818207227000073, 22.273423570000091 ], [ 72.798675977000073, 22.265570380000042 ], [ 72.785411004000082, 22.256903387000079 ], [ 72.756602410000085, 22.243719794000071 ], [ 72.726573113000029, 22.248928127000056 ], [ 72.65943444100003, 22.273911851000037 ], [ 72.625010613000029, 22.271389065000051 ], [ 72.606618686000047, 22.28384023600006 ], [ 72.596364780000044, 22.286932684000078 ], [ 72.573741082000083, 22.288234768000052 ], [ 72.553070509000065, 22.282456773000035 ], [ 72.52116946700005, 22.253119208000044 ], [ 72.501719597000033, 22.240423895000049 ], [ 72.479014519000032, 22.233384507000039 ], [ 72.46615644600007, 22.232570705000057 ], [ 72.457041863000029, 22.236721096000053 ], [ 72.454844597000033, 22.245306708000044 ], [ 72.466970248000052, 22.255845445000091 ], [ 72.463877800000034, 22.26398346600007 ], [ 72.448741082000083, 22.266831773000035 ], [ 72.432302280000044, 22.255845445000091 ], [ 72.41374759200005, 22.246323960000041 ], [ 72.39185631600003, 22.253485419000071 ], [ 72.386241082000083, 22.266506252000056 ], [ 72.381032748000052, 22.289943752000056 ], [ 72.380381707000083, 22.312404690000051 ], [ 72.388194207000083, 22.322333075000074 ], [ 72.404958530000044, 22.332953192000048 ], [ 72.408050977000073, 22.353461005000042 ], [ 72.397227410000085, 22.366766669000071 ], [ 72.371348504000082, 22.355902411000045 ], [ 72.36101321700005, 22.343451239000046 ], [ 72.349619988000029, 22.324367580000057 ], [ 72.340505405000044, 22.303208726000037 ], [ 72.336599155000044, 22.284816799000055 ], [ 72.328298373000052, 22.260728257000039 ], [ 72.309092644000032, 22.257228908000059 ], [ 72.28834069100003, 22.261297919000071 ], [ 72.275157097000033, 22.260321356000077 ], [ 72.263194207000083, 22.276353257000039 ], [ 72.265961134000065, 22.287339585000041 ], [ 72.264659050000034, 22.29523346600007 ], [ 72.240407748000052, 22.301906643000052 ], [ 72.223399285000085, 22.303168036000045 ], [ 72.208506707000083, 22.300441799000055 ], [ 72.200938347000033, 22.291449286000045 ], [ 72.20630944100003, 22.273911851000037 ], [ 72.16179446700005, 22.280951239000046 ], [ 72.148773634000065, 22.277899481000077 ], [ 72.166026238000029, 22.260321356000077 ], [ 72.19068444100003, 22.251288153000075 ], [ 72.209239129000082, 22.259426174000055 ], [ 72.240407748000052, 22.288234768000052 ], [ 72.246104363000029, 22.275580145000049 ], [ 72.243174675000034, 22.26593659100007 ], [ 72.237315300000034, 22.256293036000045 ], [ 72.234141472000033, 22.243557033000059 ], [ 72.239105665000068, 22.23891836100006 ], [ 72.268321160000085, 22.226752020000049 ], [ 72.306488477000073, 22.229559637000079 ], [ 72.317230665000068, 22.184881903000075 ], [ 72.307627800000034, 22.079006252000056 ], [ 72.298024936000047, 22.061672268000052 ], [ 72.295664910000085, 22.051174221000053 ], [ 72.291758660000085, 22.053412177000041 ], [ 72.283457879000082, 22.04360586100006 ], [ 72.276133660000085, 22.031642971000053 ], [ 72.275157097000033, 22.027533270000049 ], [ 72.257660352000073, 22.012152411000045 ], [ 72.24935957100007, 22.008286851000037 ], [ 72.237315300000034, 22.007025458000044 ], [ 72.220957879000082, 22.010972398000035 ], [ 72.21648196700005, 22.007798570000091 ], [ 72.214366082000083, 21.994045315000051 ], [ 72.20630944100003, 21.994045315000051 ], [ 72.199880405000044, 22.006984768000052 ], [ 72.195160352000073, 22.003648179000038 ], [ 72.191172722000033, 21.993638414000088 ], [ 72.186371290000068, 21.986558335000041 ], [ 72.17310631600003, 21.975653387000079 ], [ 72.16342207100007, 21.973211981000077 ], [ 72.159190300000034, 21.98314036700009 ], [ 72.15170332100007, 21.993882554000038 ], [ 72.134287957000083, 22.004584052000041 ], [ 72.113780144000032, 22.010565497000073 ], [ 72.09701582100007, 22.007025458000044 ], [ 72.119313998000052, 21.993638414000088 ], [ 72.128103061000047, 21.983547268000052 ], [ 72.124847852000073, 21.972316799000055 ], [ 72.11491946700005, 21.96938711100006 ], [ 72.076508009000065, 21.979722398000035 ], [ 72.082530144000032, 21.97337474200009 ], [ 72.104502800000034, 21.959214585000041 ], [ 72.10482832100007, 21.95148346600007 ], [ 72.102061394000032, 21.945054429000038 ], [ 72.096202019000032, 21.943019924000055 ], [ 72.073252800000034, 21.954494533000059 ], [ 72.055186394000032, 21.953517971000053 ], [ 72.03842207100007, 21.94757721600007 ], [ 72.02865644600007, 21.938788153000075 ], [ 72.08757571700005, 21.919663804000038 ], [ 72.104502800000034, 21.917669989000046 ], [ 72.142100457000083, 21.924994208000044 ], [ 72.156504754000082, 21.925848700000074 ], [ 72.145355665000068, 21.917669989000046 ], [ 72.145355665000068, 21.910834052000041 ], [ 72.159190300000034, 21.90460846600007 ], [ 72.152354363000029, 21.897853908000059 ], [ 72.169769727000073, 21.890448309000078 ], [ 72.16732832100007, 21.879136460000041 ], [ 72.160004102000073, 21.865912177000041 ], [ 72.162608269000032, 21.852850653000075 ], [ 72.169444207000083, 21.841376044000071 ], [ 72.161875847000033, 21.839178778000075 ], [ 72.130869988000029, 21.846258856000077 ], [ 72.123301629000082, 21.853745835000041 ], [ 72.111338738000029, 21.86985911700009 ], [ 72.098480665000068, 21.880519924000055 ], [ 72.077647332000083, 21.894435940000051 ], [ 72.05795332100007, 21.89874909100007 ], [ 72.049327019000032, 21.880438544000071 ], [ 72.052907748000052, 21.876532294000071 ], [ 72.061534050000034, 21.873114325000074 ], [ 72.080332879000082, 21.86985911700009 ], [ 72.086436394000032, 21.865627346000053 ], [ 72.104502800000034, 21.835760809000078 ], [ 72.086761915000068, 21.830267645000049 ], [ 72.062836134000065, 21.834377346000053 ], [ 72.004161004000082, 21.85773346600007 ], [ 71.99732506600003, 21.85492584800005 ], [ 71.994639519000032, 21.839504299000055 ], [ 71.994151238000029, 21.812201239000046 ], [ 71.996104363000029, 21.799505927000041 ], [ 72.001475457000083, 21.787909247000073 ], [ 72.005381707000083, 21.792954820000091 ], [ 72.021820509000065, 21.800970770000049 ], [ 72.021820509000065, 21.774318752000056 ], [ 72.054942254000082, 21.785589911000045 ], [ 72.07390384200005, 21.788723049000055 ], [ 72.087412957000083, 21.784491278000075 ], [ 72.10320071700005, 21.775213934000078 ], [ 72.117442254000082, 21.776597398000035 ], [ 72.166026238000029, 21.793931382000039 ], [ 72.171071811000047, 21.790961005000042 ], [ 72.172699415000068, 21.777736721000053 ], [ 72.17701256600003, 21.766669012000079 ], [ 72.195811394000032, 21.757798570000091 ], [ 72.20240319100003, 21.748114325000074 ], [ 72.214366082000083, 21.712836005000042 ], [ 72.223806186000047, 21.700588283000059 ], [ 72.230235222000033, 21.695990302000041 ], [ 72.240407748000052, 21.69171784100007 ], [ 72.251800977000073, 21.690904039000088 ], [ 72.26303144600007, 21.692328192000048 ], [ 72.271739129000082, 21.690904039000088 ], [ 72.278330925000034, 21.671942450000074 ], [ 72.292491082000083, 21.659491278000075 ], [ 72.295664910000085, 21.653876044000071 ], [ 72.298838738000029, 21.626288153000075 ], [ 72.295664910000085, 21.616034247000073 ], [ 72.275157097000033, 21.595526434000078 ], [ 72.242198113000029, 21.48078034100007 ], [ 72.219899936000047, 21.444728908000059 ], [ 72.166840040000068, 21.392075914000088 ], [ 72.159190300000034, 21.373277085000041 ], [ 72.15162194100003, 21.360174872000073 ], [ 72.116058790000068, 21.322739976000037 ], [ 72.104502800000034, 21.315008856000077 ], [ 72.110036655000044, 21.304836330000057 ], [ 72.111501498000052, 21.296087958000044 ], [ 72.107758009000065, 21.289984442000048 ], [ 72.09701582100007, 21.287665106000077 ], [ 72.102549675000034, 21.274400132000039 ], [ 72.099375847000033, 21.264960028000075 ], [ 72.090830925000034, 21.252915757000039 ], [ 72.093516472000033, 21.243557033000059 ], [ 72.104502800000034, 21.222154039000088 ], [ 72.10474694100003, 21.205064195000091 ], [ 72.090830925000034, 21.191473700000074 ], [ 72.066661004000082, 21.181341864000046 ], [ 72.062836134000065, 21.174709377000056 ], [ 72.055023634000065, 21.168361721000053 ], [ 71.990733269000032, 21.136379299000055 ], [ 71.972422722000033, 21.13226959800005 ], [ 71.926280144000032, 21.130031643000052 ], [ 71.806162957000083, 21.062079169000071 ], [ 71.788584832000083, 21.04751211100006 ], [ 71.76295006600003, 21.032294012000079 ], [ 71.743662957000083, 21.027573960000041 ], [ 71.717621290000068, 21.032049872000073 ], [ 71.683360222000033, 21.011460679000038 ], [ 71.63998457100007, 20.99681224200009 ], [ 71.583506707000083, 20.958238023000035 ], [ 71.549571160000085, 20.951239325000074 ], [ 71.557302280000044, 20.966009833000044 ], [ 71.569346550000034, 20.979193427000041 ], [ 71.551117384000065, 20.973578192000048 ], [ 71.53679446700005, 20.96430084800005 ], [ 71.49341881600003, 20.92914459800005 ], [ 71.484385613000086, 20.917141018000052 ], [ 71.480723504000082, 20.900376695000091 ], [ 71.46225019600007, 20.885321356000077 ], [ 71.378103061000047, 20.859442450000074 ], [ 71.318614129000082, 20.849310614000046 ], [ 71.140635613000086, 20.765692450000074 ], [ 71.116953972000033, 20.766913153000075 ], [ 71.110118035000085, 20.759466864000046 ], [ 71.095469597000033, 20.763739325000074 ], [ 71.08326256600003, 20.756537177000041 ], [ 71.072601759000065, 20.745672919000071 ], [ 71.062347852000073, 20.738959052000041 ], [ 71.044444207000083, 20.74054596600007 ], [ 71.024180535000085, 20.744533596000053 ], [ 71.007660352000073, 20.741603908000059 ], [ 71.000824415000068, 20.722154039000088 ], [ 70.982432488000086, 20.710150458000044 ], [ 70.840179884000065, 20.70189036700009 ], [ 70.81967207100007, 20.702948309000078 ], [ 70.801605665000068, 20.709051825000074 ], [ 70.785166863000086, 20.722154039000088 ], [ 70.774587436000047, 20.727362372000073 ], [ 70.75163821700005, 20.719631252000056 ], [ 70.740244988000086, 20.718491929000038 ], [ 70.730804884000065, 20.723211981000077 ], [ 70.69857832100007, 20.74640534100007 ], [ 70.541514519000032, 20.807847398000035 ], [ 70.484141472000033, 20.843939520000049 ], [ 70.463063998000052, 20.848863023000035 ], [ 70.451426629000082, 20.855902411000045 ], [ 70.417002800000034, 20.890448309000078 ], [ 70.398773634000065, 20.903509833000044 ], [ 70.336680535000085, 20.927069403000075 ], [ 70.299978061000047, 20.958563544000071 ], [ 70.263519727000073, 20.980414130000042 ], [ 70.152191602000073, 21.078517971000053 ], [ 70.054445219167548, 21.153155475611641 ], [ 69.968019438167545, 21.258054563611609 ], [ 69.96615644600007, 21.263413804000038 ], [ 69.95826256600003, 21.273342190000051 ], [ 69.911631707000083, 21.315008856000077 ], [ 69.84498131600003, 21.389593817000048 ], [ 69.814707879000082, 21.433661200000074 ], [ 69.808604363000086, 21.465806382000039 ], [ 69.78874759200005, 21.469305731000077 ], [ 69.771494988000086, 21.478420315000051 ], [ 69.756358269000032, 21.490423895000049 ], [ 69.629730665000068, 21.616034247000073 ], [ 69.568207227000073, 21.650132554000038 ], [ 69.552744988000086, 21.665187893000052 ], [ 69.519786004000082, 21.704779364000046 ], [ 69.49935957100007, 21.720200914000088 ], [ 69.478526238000086, 21.752630927000041 ], [ 69.446299675000034, 21.766302802000041 ], [ 69.42741946700005, 21.781236070000091 ], [ 69.39771569100003, 21.815252997000073 ], [ 69.391774936000047, 21.832180080000057 ], [ 69.395192905000044, 21.861314195000091 ], [ 69.390879754000082, 21.876695054000038 ], [ 69.367849155000044, 21.85610586100006 ], [ 69.355479363000086, 21.853176174000055 ], [ 69.336192254000082, 21.862453518000052 ], [ 69.243907097000033, 21.94594961100006 ], [ 69.21225019600007, 21.967474677000041 ], [ 69.198415561000047, 21.979722398000035 ], [ 69.150645379000082, 22.041205145000049 ], [ 69.119313998000052, 22.062079169000071 ], [ 69.103037957000083, 22.076361395000049 ], [ 69.092051629000082, 22.099595445000091 ], [ 69.04818769600007, 22.157904364000046 ], [ 69.012543165000068, 22.185614325000074 ], [ 68.994151238000086, 22.203924872000073 ], [ 68.980479363000086, 22.235541083000044 ], [ 68.953298373000052, 22.27602773600006 ], [ 68.94459069100003, 22.295070705000057 ], [ 68.944021030000044, 22.318264065000051 ], [ 68.951426629000082, 22.334865627000056 ], [ 68.96062259200005, 22.349514065000051 ], [ 68.965017123000052, 22.366766669000071 ], [ 68.967621290000068, 22.387193101000037 ], [ 68.974375847000033, 22.404730536000045 ], [ 68.983246290000068, 22.41937897300005 ], [ 68.992930535000085, 22.431586005000042 ], [ 69.00749759200005, 22.443182684000078 ], [ 69.047536655000044, 22.464016018000052 ], [ 69.07357832100007, 22.48187897300005 ], [ 69.08139082100007, 22.480536200000074 ], [ 69.08521569100003, 22.472886460000041 ], [ 69.082286004000082, 22.459540106000077 ], [ 69.074473504000082, 22.449448960000041 ], [ 69.05600019600007, 22.441839911000045 ], [ 69.04818769600007, 22.431586005000042 ], [ 69.062266472000033, 22.407700914000088 ], [ 69.071787957000083, 22.399481512000079 ], [ 69.088552280000044, 22.396877346000053 ], [ 69.097422722000033, 22.398871161000045 ], [ 69.12273196700005, 22.411078192000048 ], [ 69.132009311000047, 22.41046784100007 ], [ 69.146983269000032, 22.404852606000077 ], [ 69.154633009000065, 22.407700914000088 ], [ 69.178558790000068, 22.427639065000051 ], [ 69.188243035000085, 22.42641836100006 ], [ 69.202159050000034, 22.414862372000073 ], [ 69.205739780000044, 22.398667710000041 ], [ 69.182139519000032, 22.366441148000035 ], [ 69.185313347000033, 22.349676825000074 ], [ 69.169688347000033, 22.327948309000078 ], [ 69.173838738000086, 22.308294989000046 ], [ 69.190440300000034, 22.292303778000075 ], [ 69.212087436000047, 22.281398830000057 ], [ 69.212087436000047, 22.273911851000037 ], [ 69.28646894600007, 22.28461334800005 ], [ 69.335703972000033, 22.306138414000088 ], [ 69.346446160000085, 22.324896552000041 ], [ 69.359873894000032, 22.329169012000079 ], [ 69.435394727000073, 22.33038971600007 ], [ 69.468923373000052, 22.337836005000042 ], [ 69.479665561000047, 22.342230536000045 ], [ 69.485362175000034, 22.347560940000051 ], [ 69.502696160000085, 22.372259833000044 ], [ 69.519867384000065, 22.377630927000041 ], [ 69.525645379000082, 22.392075914000088 ], [ 69.52279707100007, 22.403876044000071 ], [ 69.51693769600007, 22.416083075000074 ], [ 69.513682488000086, 22.431586005000042 ], [ 69.515961134000065, 22.448146877000056 ], [ 69.521983269000032, 22.448919989000046 ], [ 69.530772332000083, 22.446112372000073 ], [ 69.541026238000086, 22.452093817000048 ], [ 69.547862175000034, 22.452093817000048 ], [ 69.55982506600003, 22.411525783000059 ], [ 69.561696811000047, 22.391587632000039 ], [ 69.554698113000086, 22.377630927000041 ], [ 69.569021030000044, 22.37055084800005 ], [ 69.601084832000083, 22.363836981000077 ], [ 69.616058790000068, 22.355902411000045 ], [ 69.619883660000085, 22.371039130000042 ], [ 69.629730665000068, 22.383775132000039 ], [ 69.640391472000033, 22.375962632000039 ], [ 69.647227410000085, 22.380438544000071 ], [ 69.657725457000083, 22.396877346000053 ], [ 69.669444207000083, 22.409247137000079 ], [ 69.674652540000068, 22.411078192000048 ], [ 69.694509311000047, 22.403957424000055 ], [ 69.699392123000052, 22.404282945000091 ], [ 69.708994988000086, 22.418890692000048 ], [ 69.725352410000085, 22.464544989000046 ], [ 69.733409050000034, 22.480047919000071 ], [ 69.742198113000086, 22.47296784100007 ], [ 69.78874759200005, 22.423163153000075 ], [ 69.794932488000086, 22.41860586100006 ], [ 69.806976759000065, 22.420965887000079 ], [ 69.812998894000032, 22.429510809000078 ], [ 69.822276238000086, 22.452093817000048 ], [ 69.83326256600003, 22.463812567000048 ], [ 69.841807488000086, 22.466376044000071 ], [ 69.863780144000032, 22.465765692000048 ], [ 69.884776238000086, 22.473578192000048 ], [ 69.905284050000034, 22.486395575000074 ], [ 69.962087436000047, 22.535345770000049 ], [ 69.972992384000065, 22.541449286000045 ], [ 69.97388756600003, 22.539984442000048 ], [ 69.996267123000052, 22.541449286000045 ], [ 70.002696160000085, 22.543158270000049 ], [ 70.02084394600007, 22.555121161000045 ], [ 70.059092644000032, 22.558417059000078 ], [ 70.144704623000052, 22.547796942000048 ], [ 70.178477410000085, 22.56195709800005 ], [ 70.189707879000082, 22.577785549000055 ], [ 70.207286004000082, 22.614976304000038 ], [ 70.234873894000032, 22.648871161000045 ], [ 70.26726321700005, 22.705959377000056 ], [ 70.319102410000085, 22.778265692000048 ], [ 70.323252800000034, 22.787665106000077 ], [ 70.32154381600003, 22.811712958000044 ], [ 70.322520379000082, 22.822658596000053 ], [ 70.342946811000047, 22.843166408000059 ], [ 70.375254754000082, 22.90265534100007 ], [ 70.387705925000034, 22.912014065000051 ], [ 70.404633009000065, 22.919501044000071 ], [ 70.43685957100007, 22.954901434000078 ], [ 70.453379754000082, 22.966620184000078 ], [ 70.486338738000086, 22.963690497000073 ], [ 70.497569207000083, 22.970038153000075 ], [ 70.504730665000068, 22.979559637000079 ], [ 70.527191602000073, 23.023586330000057 ], [ 70.528493686000047, 23.047064520000049 ], [ 70.523692254000082, 23.070379950000074 ], [ 70.51490319100003, 23.089544989000046 ], [ 70.502940300000034, 23.104396877000056 ], [ 70.484222852000073, 23.122137762000079 ], [ 70.467133009000065, 23.129706122000073 ], [ 70.459646030000044, 23.11399974200009 ], [ 70.450938347000033, 23.105658270000049 ], [ 70.410655144000032, 23.086004950000074 ], [ 70.398773634000065, 23.069037177000041 ], [ 70.401052280000044, 23.045396226000037 ], [ 70.404470248000052, 23.033351955000057 ], [ 70.410980665000068, 23.023179429000038 ], [ 70.401866082000083, 22.999253648000035 ], [ 70.403819207000083, 22.98187897300005 ], [ 70.40162194100003, 22.95384349200009 ], [ 70.398773634000065, 22.945502020000049 ], [ 70.392425977000073, 22.94086334800005 ], [ 70.384532097000033, 22.938869533000059 ], [ 70.363536004000082, 22.938706773000035 ], [ 70.346690300000034, 22.931301174000055 ], [ 70.33952884200005, 22.935288804000038 ], [ 70.330414259000065, 22.943304755000042 ], [ 70.325694207000083, 22.945013739000046 ], [ 70.319102410000085, 22.945502020000049 ], [ 70.303477410000085, 22.93813711100006 ], [ 70.30005944100003, 22.944281317000048 ], [ 70.291758660000085, 22.953029690000051 ], [ 70.269297722000033, 22.958563544000071 ], [ 70.258311394000032, 22.971869208000044 ], [ 70.24968509200005, 22.987453518000052 ], [ 70.233083530000044, 23.000148830000057 ], [ 70.231944207000083, 22.97492096600007 ], [ 70.22201582100007, 22.959173895000049 ], [ 70.204112175000034, 22.952215887000079 ], [ 70.178477410000085, 22.953029690000051 ], [ 70.171722852000073, 22.951971747000073 ], [ 70.167735222000033, 22.949123440000051 ], [ 70.163096550000034, 22.948960679000038 ], [ 70.154307488000086, 22.956040757000039 ], [ 70.147471550000034, 22.966050523000035 ], [ 70.129079623000052, 22.969305731000077 ], [ 70.125010613000086, 22.975978908000059 ], [ 70.12623131600003, 22.984808661000045 ], [ 70.130625847000033, 22.993963934000078 ], [ 70.109548373000052, 22.959173895000049 ], [ 70.12045332100007, 22.95258209800005 ], [ 70.132334832000083, 22.941066799000055 ], [ 70.135427280000044, 22.92999909100007 ], [ 70.120127800000034, 22.925034898000035 ], [ 70.06177819100003, 22.918198960000041 ], [ 69.996918165000068, 22.893784898000035 ], [ 69.94068444100003, 22.886135158000059 ], [ 69.884287957000083, 22.86782461100006 ], [ 69.85287519600007, 22.86359284100007 ], [ 69.833181186000047, 22.858465887000079 ], [ 69.806813998000052, 22.845282294000071 ], [ 69.780121290000068, 22.827460028000075 ], [ 69.760101759000065, 22.808335679000038 ], [ 69.728851759000065, 22.754828192000048 ], [ 69.715830925000034, 22.746893622000073 ], [ 69.694346550000034, 22.749701239000046 ], [ 69.653819207000083, 22.76048411700009 ], [ 69.585703972000033, 22.76117584800005 ], [ 69.575694207000083, 22.764349677000041 ], [ 69.556976759000065, 22.778509833000044 ], [ 69.544444207000083, 22.781683661000045 ], [ 69.510752800000034, 22.780503648000035 ], [ 69.500010613000086, 22.781683661000045 ], [ 69.489431186000047, 22.784735419000071 ], [ 69.472178582000083, 22.794663804000038 ], [ 69.424652540000068, 22.804266669000071 ], [ 69.40593509200005, 22.813666083000044 ], [ 69.372569207000083, 22.81899648600006 ], [ 69.338145379000082, 22.833075262000079 ], [ 69.238780144000032, 22.841945705000057 ], [ 69.201914910000085, 22.852240302000041 ], [ 69.135590040000068, 22.888373114000046 ], [ 69.039886915000068, 22.950506903000075 ], [ 68.866221550000034, 23.019964911000045 ], [ 68.691254102000073, 23.130519924000055 ], [ 68.660655144000032, 23.154242255000042 ], [ 68.654063347000033, 23.157782294000071 ], [ 68.650645379000082, 23.162054755000042 ], [ 68.64966881600003, 23.180853583000044 ], [ 68.622569207000083, 23.191555080000057 ], [ 68.609141472000033, 23.206773179000038 ], [ 68.599945509000065, 23.225043036000045 ], [ 68.595713738000086, 23.240383205000057 ], [ 68.609385613000086, 23.226711330000057 ], [ 68.620127800000034, 23.245428778000075 ], [ 68.623220248000052, 23.25617096600007 ], [ 68.623057488000086, 23.267645575000074 ], [ 68.605316602000073, 23.259588934000078 ], [ 68.57781009200005, 23.255275783000059 ], [ 68.552256707000083, 23.259711005000042 ], [ 68.541026238000086, 23.278225002000056 ], [ 68.561045769000032, 23.316107489000046 ], [ 68.568532748000052, 23.318426825000074 ], [ 68.599131707000083, 23.322251695000091 ], [ 68.606944207000083, 23.325588283000059 ], [ 68.603037957000083, 23.332831122000073 ], [ 68.592051629000082, 23.340073960000041 ], [ 68.571055535000085, 23.346380927000041 ], [ 68.561045769000032, 23.36391836100006 ], [ 68.555186394000032, 23.363959052000041 ], [ 68.541026238000086, 23.357001044000071 ], [ 68.520681186000047, 23.369208075000074 ], [ 68.515147332000083, 23.377020575000074 ], [ 68.513194207000083, 23.388088283000059 ], [ 68.515147332000083, 23.399318752000056 ], [ 68.52076256600003, 23.407538153000075 ], [ 68.529551629000082, 23.411932684000078 ], [ 68.541026238000086, 23.411688544000071 ], [ 68.53638756600003, 23.42133209800005 ], [ 68.530121290000068, 23.425685940000051 ], [ 68.522146030000044, 23.424750067000048 ], [ 68.513194207000083, 23.418524481000077 ], [ 68.501475457000083, 23.42328522300005 ], [ 68.490489129000082, 23.409328518000052 ], [ 68.475352410000085, 23.404852606000077 ], [ 68.46257571700005, 23.409125067000048 ], [ 68.458832227000073, 23.419826565000051 ], [ 68.461110873000052, 23.433172919000071 ], [ 68.465505405000044, 23.445786851000037 ], [ 68.451914910000085, 23.437730210000041 ], [ 68.440440300000034, 23.434271552000041 ], [ 68.43091881600003, 23.436590887000079 ], [ 68.423675977000073, 23.445786851000037 ], [ 68.43295332100007, 23.465887762000079 ], [ 68.447438998000052, 23.487453518000052 ], [ 68.465586785000085, 23.505275783000059 ], [ 68.485850457000083, 23.514105536000045 ], [ 68.481293165000068, 23.525132554000038 ], [ 68.475596550000034, 23.524115302000041 ], [ 68.46802819100003, 23.51984284100007 ], [ 68.45866946700005, 23.521470445000091 ], [ 68.437347852000073, 23.548814195000091 ], [ 68.441416863000086, 23.532049872000073 ], [ 68.447438998000052, 23.51634349200009 ], [ 68.44695071700005, 23.502997137000079 ], [ 68.431162957000083, 23.49359772300005 ], [ 68.411631707000083, 23.494696356000077 ], [ 68.406097852000073, 23.508734442000048 ], [ 68.410817905000044, 23.548814195000091 ], [ 68.404958530000044, 23.597601630000042 ], [ 68.408864780000044, 23.621323960000041 ], [ 68.427500847000033, 23.631415106000077 ], [ 68.471527540000068, 23.618638414000088 ], [ 68.49146569100003, 23.618841864000046 ], [ 68.492686394000032, 23.637600002000056 ], [ 68.486175977000073, 23.641424872000073 ], [ 68.476898634000065, 23.639349677000041 ], [ 68.468760613000086, 23.640814520000049 ], [ 68.465505405000044, 23.655259507000039 ], [ 68.469411655000044, 23.659247137000079 ], [ 68.488942905000044, 23.66478099200009 ], [ 68.504730665000068, 23.674221096000053 ], [ 68.523936394000032, 23.675930080000057 ], [ 68.533539259000065, 23.679185289000088 ], [ 68.538828972000033, 23.684027411000045 ], [ 68.554698113000086, 23.70648834800005 ], [ 68.583506707000083, 23.735296942000048 ], [ 68.601735873000052, 23.74868398600006 ], [ 68.637868686000047, 23.761542059000078 ], [ 68.654551629000082, 23.799058335000041 ], [ 68.670746290000068, 23.815741278000075 ], [ 68.680186394000032, 23.817775783000059 ], [ 68.715586785000085, 23.815741278000075 ], [ 68.725596550000034, 23.818915106000077 ], [ 68.745127800000034, 23.833075262000079 ], [ 68.76880944100003, 23.841131903000075 ], [ 68.82162519600007, 23.878404039000088 ], [ 68.805674675000034, 23.884426174000055 ], [ 68.780039910000085, 23.874090887000079 ], [ 68.76693769600007, 23.878404039000088 ], [ 68.740244988000086, 23.853461005000042 ], [ 68.717784050000034, 23.841009833000044 ], [ 68.691905144000032, 23.83665599200009 ], [ 68.654063347000033, 23.83624909100007 ], [ 68.633474155000044, 23.833075262000079 ], [ 68.623057488000086, 23.824408270000049 ], [ 68.609385613000086, 23.79523346600007 ], [ 68.59888756600003, 23.78188711100006 ], [ 68.587738477000073, 23.77570221600007 ], [ 68.554698113000086, 23.768540757000039 ], [ 68.53834069100003, 23.761297919000071 ], [ 68.510020379000082, 23.744086005000042 ], [ 68.472829623000052, 23.737494208000044 ], [ 68.449717644000032, 23.723334052000041 ], [ 68.427744988000086, 23.71430084800005 ], [ 68.410817905000044, 23.700506903000075 ], [ 68.341970248000052, 23.623968817000048 ], [ 68.351573113000086, 23.61782461100006 ], [ 68.353037957000083, 23.610663153000075 ], [ 68.34888756600003, 23.603420315000051 ], [ 68.341970248000052, 23.596625067000048 ], [ 68.327321811000047, 23.586900132000039 ], [ 68.31763756600003, 23.586127020000049 ], [ 68.308116082000083, 23.589056708000044 ], [ 68.294118686000047, 23.590399481000077 ], [ 68.230804884000065, 23.588080145000049 ], [ 68.181407097000033, 23.59406159100007 ], [ 68.157399936000047, 23.600816148000035 ], [ 68.143402540000068, 23.612697658000059 ], [ 68.15007571700005, 23.631415106000077 ], [ 68.174327019000032, 23.631415106000077 ], [ 68.178233269000032, 23.634344794000071 ], [ 68.184255405000044, 23.651922919000071 ], [ 68.198090040000068, 23.659084377000056 ], [ 68.209320509000065, 23.66274648600006 ], [ 68.22006269600007, 23.659247137000079 ], [ 68.232676629000082, 23.645005601000037 ], [ 68.245127800000034, 23.659125067000048 ], [ 68.261892123000052, 23.661444403000075 ], [ 68.275889519000032, 23.665838934000078 ], [ 68.280446811000047, 23.685980536000045 ], [ 68.258962436000047, 23.674709377000056 ], [ 68.240977410000085, 23.674017645000049 ], [ 68.224864129000082, 23.681870835000041 ], [ 68.208750847000033, 23.696234442000048 ], [ 68.197520379000082, 23.714544989000046 ], [ 68.195811394000032, 23.733465887000079 ], [ 68.197927280000044, 23.753404039000088 ], [ 68.197764519000032, 23.774807033000059 ], [ 68.178233269000032, 23.754299221000053 ], [ 68.168142123000052, 23.747463283000059 ], [ 68.16374759200005, 23.757717190000051 ], [ 68.166026238000086, 23.773179429000038 ], [ 68.175629102000073, 23.798244533000059 ], [ 68.183116082000083, 23.843451239000046 ], [ 68.15748131600003, 23.905096747000073 ], [ 68.156423373000052, 23.874009507000039 ], [ 68.15748131600003, 23.864162502000056 ], [ 68.170583530000044, 23.839911200000074 ], [ 68.166758660000085, 23.820013739000046 ], [ 68.148692254000082, 23.780910549000055 ], [ 68.143321160000085, 23.761135158000059 ], [ 68.14421634200005, 23.743150132000039 ], [ 68.154795769000032, 23.71430084800005 ], [ 68.15748131600003, 23.696234442000048 ], [ 68.149099155000044, 23.694525458000044 ], [ 68.130381707000083, 23.708197333000044 ], [ 68.102224155000044, 23.73383209800005 ], [ 68.09888756600003, 23.70929596600007 ], [ 68.08171634200005, 23.708685614000046 ], [ 68.062754754000082, 23.723130601000037 ], [ 68.053884311000047, 23.743719794000071 ], [ 68.056976759000065, 23.750962632000039 ], [ 68.071055535000085, 23.760646877000056 ], [ 68.074392123000052, 23.764837958000044 ], [ 68.073252800000034, 23.783433335000041 ], [ 68.08171634200005, 23.805650132000039 ], [ 68.088226759000065, 23.809515692000048 ], [ 68.102224155000044, 23.809515692000048 ], [ 68.102224155000044, 23.815741278000075 ], [ 68.088389519000032, 23.826076565000051 ], [ 68.072520379000082, 23.841864325000074 ], [ 68.059418165000068, 23.861883856000077 ], [ 68.053884311000047, 23.884670315000051 ], [ 68.06373131600003, 23.923163153000075 ], [ 68.047699415000068, 23.921210028000075 ], [ 68.024180535000085, 23.935248114000046 ], [ 68.013519727000073, 23.939276434000078 ], [ 68.041514519000032, 23.852240302000041 ], [ 68.053884311000047, 23.829413153000075 ], [ 68.035655144000032, 23.79242584800005 ], [ 68.024424675000034, 23.774603583000044 ], [ 68.013519727000073, 23.768540757000039 ], [ 68.007985873000052, 23.774237372000073 ], [ 68.003428582000083, 23.785305080000057 ], [ 67.99927819100003, 23.805812893000052 ], [ 67.994151238000086, 23.81118398600006 ], [ 67.983164910000085, 23.809637762000079 ], [ 67.973399285000085, 23.805243231000077 ], [ 67.97193444100003, 23.802069403000075 ], [ 67.95085696700005, 23.80890534100007 ], [ 67.941661004000082, 23.81586334800005 ], [ 67.934255405000044, 23.832993882000039 ], [ 67.916758660000085, 23.833644924000055 ], [ 67.909922722000033, 23.83624909100007 ], [ 67.904633009000065, 23.846258856000077 ], [ 67.90593509200005, 23.859279690000051 ], [ 67.899912957000083, 23.867580471000053 ], [ 67.89193769600007, 23.869574286000045 ], [ 67.883474155000044, 23.864813544000071 ], [ 67.868907097000033, 23.850490627000056 ], [ 67.86451256600003, 23.865790106000077 ], [ 67.863291863000086, 23.902818101000037 ], [ 67.855235222000033, 23.911932684000078 ], [ 67.849131707000083, 23.889471747000073 ], [ 67.839040561000047, 23.823391018000052 ], [ 67.83171634200005, 23.809515692000048 ], [ 67.802582227000073, 23.81281159100007 ], [ 67.773203972000033, 23.821112372000073 ], [ 67.718597852000073, 23.843695380000042 ], [ 67.730723504000082, 23.835598049000055 ], [ 67.741058790000068, 23.823065497000073 ], [ 67.743662957000083, 23.808783270000049 ], [ 67.732269727000073, 23.79523346600007 ], [ 67.715668165000068, 23.791693427000041 ], [ 67.693614129000082, 23.793443101000037 ], [ 67.656586134000065, 23.802069403000075 ], [ 67.637705925000034, 23.801743882000039 ], [ 67.631602410000085, 23.80345286700009 ], [ 67.629242384000065, 23.812648830000057 ], [ 67.630707227000073, 23.824774481000077 ], [ 67.642914259000065, 23.850490627000056 ], [ 67.651052280000044, 23.907049872000073 ], [ 67.656586134000065, 23.91937897300005 ], [ 67.656586134000065, 23.925604559000078 ], [ 67.65202884200005, 23.925279039000088 ], [ 67.650401238000086, 23.93305084800005 ], [ 67.63803144600007, 23.915920315000051 ], [ 67.637380405000044, 23.874253648000035 ], [ 67.629242384000065, 23.856675523000035 ], [ 67.61451256600003, 23.850083726000037 ], [ 67.599619988000086, 23.85423411700009 ], [ 67.589366082000083, 23.866522528000075 ], [ 67.588389519000032, 23.884670315000051 ], [ 67.574554884000065, 23.871771552000041 ], [ 67.56609134200005, 23.876450914000088 ], [ 67.558116082000083, 23.888657945000091 ], [ 67.546641472000033, 23.898260809000078 ], [ 67.53256269600007, 23.89915599200009 ], [ 67.530121290000068, 23.89126211100006 ], [ 67.535899285000085, 23.880031643000052 ], [ 67.546641472000033, 23.870998440000051 ], [ 67.491058790000068, 23.88312409100007 ], [ 67.478526238000086, 23.891506252000056 ], [ 67.502614780000044, 23.89288971600007 ], [ 67.512543165000068, 23.898260809000078 ], [ 67.520518425000034, 23.907049872000073 ], [ 67.532237175000034, 23.92914459800005 ], [ 67.540537957000083, 23.939276434000078 ], [ 67.53052819100003, 23.935492255000042 ], [ 67.50904381600003, 23.923244533000059 ], [ 67.498871290000068, 23.925604559000078 ], [ 67.496918165000068, 23.935614325000074 ], [ 67.499766472000033, 23.951646226000037 ], [ 67.506358269000032, 23.974025783000059 ], [ 67.463633660000085, 23.982001044000071 ], [ 67.451182488000086, 23.987697658000059 ], [ 67.46810957100007, 24.021958726000037 ], [ 67.47820071700005, 24.032416083000044 ], [ 67.492198113000086, 24.028021552000041 ], [ 67.519867384000065, 24.045070705000057 ], [ 67.529795769000032, 24.054917710000041 ], [ 67.533050977000073, 24.070257880000042 ], [ 67.509776238000086, 24.052069403000075 ], [ 67.489105665000068, 24.054103908000059 ], [ 67.467295769000032, 24.064154364000046 ], [ 67.44068444100003, 24.070257880000042 ], [ 67.383555535000085, 24.066799221000053 ], [ 67.354014519000032, 24.070868231000077 ], [ 67.341319207000083, 24.086371161000045 ], [ 67.337087436000047, 24.118963934000078 ], [ 67.326426629000082, 24.143784898000035 ], [ 67.300303582000083, 24.18626536700009 ], [ 67.295583530000044, 24.199204820000091 ], [ 67.293304884000065, 24.212225653000075 ], [ 67.29232832100007, 24.261867580000057 ], [ 67.28842207100007, 24.269964911000045 ], [ 67.279144727000073, 24.281236070000091 ], [ 67.292816602000073, 24.302964585000041 ], [ 67.285980665000068, 24.329575914000088 ], [ 67.30591881600003, 24.342840887000079 ], [ 67.336436394000032, 24.34642161700009 ], [ 67.362478061000047, 24.343939520000049 ], [ 67.342539910000085, 24.35382721600007 ], [ 67.325368686000047, 24.357611395000049 ], [ 67.282969597000033, 24.357611395000049 ], [ 67.271657748000052, 24.369086005000042 ], [ 67.273610873000052, 24.395086981000077 ], [ 67.286631707000083, 24.439520575000074 ], [ 67.273610873000052, 24.426947333000044 ], [ 67.258799675000034, 24.419094143000052 ], [ 67.256846550000034, 24.444973049000055 ], [ 67.246836785000085, 24.467962958000044 ], [ 67.230723504000082, 24.488836981000077 ], [ 67.219467845505321, 24.5 ] ] ] } },
{ "type": "Feature", "properties": { }, "geometry": { "type": "Polygon", "coordinates": [ [ [ 67.375498894000032, 24.062730210000041 ], [ 67.390391472000033, 24.049261786000045 ], [ 67.413259311000047, 24.048773505000042 ], [ 67.458018425000034, 24.062730210000041 ], [ 67.47779381600003, 24.051214911000045 ], [ 67.485280795000051, 24.048488674000055 ], [ 67.465179884000065, 24.040594794000071 ], [ 67.460785352000073, 24.026678778000075 ], [ 67.453949415000068, 24.013413804000038 ], [ 67.426931186000047, 24.007513739000046 ], [ 67.40943444100003, 24.013495184000078 ], [ 67.393402540000068, 24.02806224200009 ], [ 67.381521030000044, 24.046210028000075 ], [ 67.375498894000032, 24.062730210000041 ] ] ] } }
]
}
