{
  "type": "FeatureCollection",
  "name": "aoi",
  "crs": {"type": "name", "properties": {"name": "urn:ogc:def:crs:OGC:1.3:CRS84"}},
  "features": [
    {
      "type": "Feature",
      "properties": {
        "name": "placeholder-aoi",
        "note": "Replace with the real area of interest before running the pipeline."
      },
      "geometry": {
        "type": "Polygon",
        "coordinates": [
          [
            [68.0, 20.0],
            [72.5, 20.0],
            [72.5, 23.5],
            [68.0, 23.5],
            [68.0, 20.0]
          ]
        ]
      }
    }
  ]
}
